CCSDS_OMM_VERS = 2.0
CREATION_DATE  = 
ORIGINATOR     = 

OBJECT_NAME    = STARLINK-36357
OBJECT_ID      = 2026-038C
CENTER_NAME    = EARTH
REF_FRAME      = TEME
TIME_SYSTEM    = UTC
MEAN_ELEMENT_THEORY = SGP/SGP4

EPOCH          = 2026-03-23T12:00:02.998944
MEAN_MOTION    = 15.49139773
ECCENTRICITY   = .0001117
INCLINATION    = 97.2856
RA_OF_ASC_NODE = 93.3097
ARG_OF_PERICENTER = 120.1495
MEAN_ANOMALY   = 69.3496

EPHEMERIS_TYPE = 0
CLASSIFICATION_TYPE = U
NORAD_CAT_ID   = 67963
ELEMENT_SET_NO = 999
REV_AT_EPOCH   = 542
BSTAR          = .14517E-2
MEAN_MOTION_DOT = .7953E-3
MEAN_MOTION_DDOT = 0

CCSDS_OMM_VERS = 2.0
CREATION_DATE  = 
ORIGINATOR     = 

OBJECT_NAME    = STARLINK-36349
OBJECT_ID      = 2026-038D
CENTER_NAME    = EARTH
REF_FRAME      = TEME
TIME_SYSTEM    = UTC
MEAN_ELEMENT_THEORY = SGP/SGP4

EPOCH          = 2026-03-23T12:00:02.998944
MEAN_MOTION    = 15.49145904
ECCENTRICITY   = .0000992
INCLINATION    = 97.2856
RA_OF_ASC_NODE = 93.3061
ARG_OF_PERICENTER = 111.7042
MEAN_ANOMALY   = 70.6248

EPHEMERIS_TYPE = 0
CLASSIFICATION_TYPE = U
NORAD_CAT_ID   = 67964
ELEMENT_SET_NO = 999
REV_AT_EPOCH   = 542
BSTAR          = .13992E-2
MEAN_MOTION_DOT = .76634E-3
MEAN_MOTION_DDOT = 0

CCSDS_OMM_VERS = 2.0
CREATION_DATE  = 
ORIGINATOR     = 

OBJECT_NAME    = STARLINK-36806
OBJECT_ID      = 2026-038E
CENTER_NAME    = EARTH
REF_FRAME      = TEME
TIME_SYSTEM    = UTC
MEAN_ELEMENT_THEORY = SGP/SGP4

EPOCH          = 2026-03-23T12:00:02.998944
MEAN_MOTION    = 15.45288243
ECCENTRICITY   = .00021
INCLINATION    = 97.2857
RA_OF_ASC_NODE = 93.3570
ARG_OF_PERICENTER = 119.3172
MEAN_ANOMALY   = 185.2629

EPHEMERIS_TYPE = 0
CLASSIFICATION_TYPE = U
NORAD_CAT_ID   = 67965
ELEMENT_SET_NO = 999
REV_AT_EPOCH   = 542
BSTAR          = -.53064E-1
MEAN_MOTION_DOT = -.2222641E-1
MEAN_MOTION_DDOT = 0

CCSDS_OMM_VERS = 2.0
CREATION_DATE  = 
ORIGINATOR     = 

OBJECT_NAME    = STARLINK-36820
OBJECT_ID      = 2026-038F
CENTER_NAME    = EARTH
REF_FRAME      = TEME
TIME_SYSTEM    = UTC
MEAN_ELEMENT_THEORY = SGP/SGP4

EPOCH          = 2026-03-23T12:00:02.998944
MEAN_MOTION    = 15.45393964
ECCENTRICITY   = .0001325
INCLINATION    = 97.2853
RA_OF_ASC_NODE = 93.3645
ARG_OF_PERICENTER = 126.0415
MEAN_ANOMALY   = 191.7740

EPHEMERIS_TYPE = 0
CLASSIFICATION_TYPE = U
NORAD_CAT_ID   = 67966
ELEMENT_SET_NO = 999
REV_AT_EPOCH   = 542
BSTAR          = -.52782E-1
MEAN_MOTION_DOT = -.2218765E-1
MEAN_MOTION_DDOT = 0

CCSDS_OMM_VERS = 2.0
CREATION_DATE  = 
ORIGINATOR     = 

OBJECT_NAME    = STARLINK-36819
OBJECT_ID      = 2026-038G
CENTER_NAME    = EARTH
REF_FRAME      = TEME
TIME_SYSTEM    = UTC
MEAN_ELEMENT_THEORY = SGP/SGP4

EPOCH          = 2026-03-23T10:40:51.074112
MEAN_MOTION    = 15.49275569
ECCENTRICITY   = .000133
INCLINATION    = 97.2850
RA_OF_ASC_NODE = 93.1497
ARG_OF_PERICENTER = 56.3935
MEAN_ANOMALY   = 303.7443

EPHEMERIS_TYPE = 0
CLASSIFICATION_TYPE = U
NORAD_CAT_ID   = 67967
ELEMENT_SET_NO = 999
REV_AT_EPOCH   = 533
BSTAR          = .15447E-2
MEAN_MOTION_DOT = .85094E-3
MEAN_MOTION_DDOT = 0

CCSDS_OMM_VERS = 2.0
CREATION_DATE  = 
ORIGINATOR     = 

OBJECT_NAME    = STARLINK-36812
OBJECT_ID      = 2026-038H
CENTER_NAME    = EARTH
REF_FRAME      = TEME
TIME_SYSTEM    = UTC
MEAN_ELEMENT_THEORY = SGP/SGP4

EPOCH          = 2026-03-23T12:00:02.998944
MEAN_MOTION    = 15.46407928
ECCENTRICITY   = .0001568
INCLINATION    = 97.2857
RA_OF_ASC_NODE = 93.3747
ARG_OF_PERICENTER = 117.6032
MEAN_ANOMALY   = 221.9259

EPHEMERIS_TYPE = 0
CLASSIFICATION_TYPE = U
NORAD_CAT_ID   = 67968
ELEMENT_SET_NO = 999
REV_AT_EPOCH   = 542
BSTAR          = -.50832E-1
MEAN_MOTION_DOT = -.2213765E-1
MEAN_MOTION_DDOT = 0

CCSDS_OMM_VERS = 2.0
CREATION_DATE  = 
ORIGINATOR     = 

OBJECT_NAME    = STARLINK-36709
OBJECT_ID      = 2026-038J
CENTER_NAME    = EARTH
REF_FRAME      = TEME
TIME_SYSTEM    = UTC
MEAN_ELEMENT_THEORY = SGP/SGP4

EPOCH          = 2026-03-23T12:00:02.998944
MEAN_MOTION    = 15.48265983
ECCENTRICITY   = .0001176
INCLINATION    = 97.2856
RA_OF_ASC_NODE = 93.3788
ARG_OF_PERICENTER = 108.7284
MEAN_ANOMALY   = 242.8660

EPHEMERIS_TYPE = 0
CLASSIFICATION_TYPE = U
NORAD_CAT_ID   = 67969
ELEMENT_SET_NO = 999
REV_AT_EPOCH   = 542
BSTAR          = -.48519E-1
MEAN_MOTION_DOT = -.2249271E-1
MEAN_MOTION_DDOT = 0

CCSDS_OMM_VERS = 2.0
CREATION_DATE  = 
ORIGINATOR     = 

OBJECT_NAME    = STARLINK-36319
OBJECT_ID      = 2026-038K
CENTER_NAME    = EARTH
REF_FRAME      = TEME
TIME_SYSTEM    = UTC
MEAN_ELEMENT_THEORY = SGP/SGP4

EPOCH          = 2026-03-23T12:00:02.998944
MEAN_MOTION    = 15.49258642
ECCENTRICITY   = .0001626
INCLINATION    = 97.2853
RA_OF_ASC_NODE = 93.3314
ARG_OF_PERICENTER = 139.1011
MEAN_ANOMALY   = 107.8075

EPHEMERIS_TYPE = 0
CLASSIFICATION_TYPE = U
NORAD_CAT_ID   = 67970
ELEMENT_SET_NO = 999
REV_AT_EPOCH   = 539
BSTAR          = -.49673E-1
MEAN_MOTION_DOT = -.241352E-1
MEAN_MOTION_DDOT = 0

CCSDS_OMM_VERS = 2.0
CREATION_DATE  = 
ORIGINATOR     = 

OBJECT_NAME    = STARLINK-36710
OBJECT_ID      = 2026-038L
CENTER_NAME    = EARTH
REF_FRAME      = TEME
TIME_SYSTEM    = UTC
MEAN_ELEMENT_THEORY = SGP/SGP4

EPOCH          = 2026-03-23T12:00:02.998944
MEAN_MOTION    = 15.47159037
ECCENTRICITY   = .0001496
INCLINATION    = 97.2855
RA_OF_ASC_NODE = 93.3882
ARG_OF_PERICENTER = 71.9085
MEAN_ANOMALY   = 305.8317

EPHEMERIS_TYPE = 0
CLASSIFICATION_TYPE = U
NORAD_CAT_ID   = 67971
ELEMENT_SET_NO = 999
REV_AT_EPOCH   = 542
BSTAR          = -.53947E-1
MEAN_MOTION_DOT = -.2432739E-1
MEAN_MOTION_DDOT = 0

CCSDS_OMM_VERS = 2.0
CREATION_DATE  = 
ORIGINATOR     = 

OBJECT_NAME    = STARLINK-36894
OBJECT_ID      = 2026-038M
CENTER_NAME    = EARTH
REF_FRAME      = TEME
TIME_SYSTEM    = UTC
MEAN_ELEMENT_THEORY = SGP/SGP4

EPOCH          = 2026-03-23T12:00:02.998944
MEAN_MOTION    = 15.47336092
ECCENTRICITY   = .0001414
INCLINATION    = 97.2854
RA_OF_ASC_NODE = 93.3953
ARG_OF_PERICENTER = 105.9090
MEAN_ANOMALY   = 285.0625

EPHEMERIS_TYPE = 0
CLASSIFICATION_TYPE = U
NORAD_CAT_ID   = 67972
ELEMENT_SET_NO = 999
REV_AT_EPOCH   = 542
BSTAR          = -.50756E-1
MEAN_MOTION_DOT = -.2274365E-1
MEAN_MOTION_DDOT = 0

CCSDS_OMM_VERS = 2.0
CREATION_DATE  = 
ORIGINATOR     = 

OBJECT_NAME    = STARLINK-36900
OBJECT_ID      = 2026-038N
CENTER_NAME    = EARTH
REF_FRAME      = TEME
TIME_SYSTEM    = UTC
MEAN_ELEMENT_THEORY = SGP/SGP4

EPOCH          = 2026-03-23T06:59:11.072832
MEAN_MOTION    = 15.49247532
ECCENTRICITY   = .0001944
INCLINATION    = 97.2855
RA_OF_ASC_NODE = 93.0536
ARG_OF_PERICENTER = 104.2444
MEAN_ANOMALY   = 255.9023

EPHEMERIS_TYPE = 0
CLASSIFICATION_TYPE = U
NORAD_CAT_ID   = 67973
ELEMENT_SET_NO = 999
REV_AT_EPOCH   = 531
BSTAR          = .19934E-2
MEAN_MOTION_DOT = .110079E-2
MEAN_MOTION_DDOT = 0

CCSDS_OMM_VERS = 2.0
CREATION_DATE  = 
ORIGINATOR     = 

OBJECT_NAME    = STARLINK-36901
OBJECT_ID      = 2026-038P
CENTER_NAME    = EARTH
REF_FRAME      = TEME
TIME_SYSTEM    = UTC
MEAN_ELEMENT_THEORY = SGP/SGP4

EPOCH          = 2026-03-23T12:00:02.998944
MEAN_MOTION    = 15.47967443
ECCENTRICITY   = .0001384
INCLINATION    = 97.2863
RA_OF_ASC_NODE = 93.3992
ARG_OF_PERICENTER = 64.9836
MEAN_ANOMALY   = 334.4340

EPHEMERIS_TYPE = 0
CLASSIFICATION_TYPE = U
NORAD_CAT_ID   = 67974
ELEMENT_SET_NO = 999
REV_AT_EPOCH   = 542
BSTAR          = -.48252E-1
MEAN_MOTION_DOT = -.221799E-1
MEAN_MOTION_DDOT = 0

